TRANSPORTER-10 OBJECT AG
1 59128U 24043AG  26068.92552531  .00009498  00000+0  32170-3 0  9997
2 59128  97.5471 205.7101 0009300 226.5958 133.4509 15.30759727111920
STARLINK-32830          
1 63034U 25034F   26068.73607494  .00018267  00000+0  62718-3 0  9992
2 63034  53.1578 257.9268 0001575 135.6995 224.4132 15.30208554 59096
